[
    {
        "CCSDS_OMM_VERS": "3.0",
        "COMMENT": "GENERATED VIA SPACE-TRACK.ORG API",
        "CREATION_DATE": "2025-04-14T03:05:54",
        "ORIGINATOR": "18 SPCS",
        "OBJECT_NAME": "NAVSTAR 70 (USA 251)",
        "OBJECT_ID": "2014-026A",
        "CENTER_NAME": "EARTH",
        "REF_FRAME": "TEME",
        "TIME_SYSTEM": "UTC",
        "MEAN_ELEMENT_THEORY": "SGP4",
        "EPOCH": "2025-04-12T16:39:39.842496",
        "MEAN_MOTION": "2.00578930",
        "ECCENTRICITY": "0.00360660",
        "INCLINATION": "56.6625",
        "RA_OF_ASC_NODE": "348.2550",
        "ARG_OF_PERICENTER": "319.8179",
        "MEAN_ANOMALY": "39.9648",
        "EPHEMERIS_TYPE": "0",
        "CLASSIFICATION_TYPE": "U",
        "NORAD_CAT_ID": "39741",
        "ELEMENT_SET_NO": "999",
        "REV_AT_EPOCH": "7990",
        "BSTAR": "0.00000000000000",
        "MEAN_MOTION_DOT": "-0.00000093",
        "MEAN_MOTION_DDOT": "0.0000000000000",
        "SEMIMAJOR_AXIS": "26558.995",
        "PERIOD": "717.922",
        "APOAPSIS": "20276.648",
        "PERIAPSIS": "20085.072",
        "OBJECT_TYPE": "PAYLOAD",
        "RCS_SIZE": "LARGE",
        "COUNTRY_CODE": "US",
        "LAUNCH_DATE": "2014-05-17",
        "SITE": "AFETR",
        "DECAY_DATE": null,
        "FILE": "4701263",
        "GP_ID": "285536780",
        "TLE_LINE0": "0 NAVSTAR 70 (USA 251)",
        "TLE_LINE1": "1 39741U 14026A   25102.69421114 -.00000093  00000-0  00000-0 0  9998",
        "TLE_LINE2": "2 39741  56.6625 348.2550 0036066 319.8179  39.9648  2.00578930 79900"
    }
]